IRIDIUM 112             
1 41925U 17003J   23300.07216416  .00000145  00000+0  44584-4 0  9995
2 41925  86.3940 131.2685 0002243  84.3629 275.7823 14.34216340355119
IRIDIUM 111             
1 41926U 17003K   23299.64087045  .00000130  00000+0  39267-4 0  9996
2 41926  86.3943 131.4982 0001865  85.8202 274.3207 14.34215728355005
IRIDIUM 113             
1 42803U 17039A   23300.17897324  .00000530  00000+0  18219-3 0  9997
2 42803  86.4021   5.0135 0002096  89.5429 270.6007 14.34216973333010
IRIDIUM 123             
1 42804U 17039B   23300.22044196  .00000446  00000+0  15207-3 0  9995
2 42804  86.4015  36.4801 0002089  87.4045 272.7390 14.34216081331785
IRIDIUM 120             
1 42805U 17039C   23299.68425182  .00000438  00000+0  14947-3 0  9992
2 42805  86.4011   5.1275 0002064  92.9281 267.2151 14.34216791332936
IRIDIUM 115             
1 42806U 17039D   23299.72782505  .00000487  00000+0  13846-3 0  9994
2 42806  86.4548   5.1004 0001953  93.3346 266.8078 14.43364793335151
IRIDIUM 118             
1 42807U 17039E   23300.18239579  .00000440  00000+0  15013-3 0  9993
2 42807  86.4012  36.4982 0002166  93.7382 266.4061 14.34216693331789
IRIDIUM 117             
1 42808U 17039F   23299.78281096  .00000368  00000+0  12425-3 0  9991
2 42808  86.4012  36.6314 0002046  96.6765 263.4664 14.34214309331749
